{"type": "FeatureCollection", "features": [{"type": "Feature", "properties": {"norad_id": 26766, "name": "INTELSAT 10 (IS-10)", "group": "intelsat", "lat": 7.550996912571923, "lon": 121.44241757276468, "alt_km": 36155.82674334888, "timestamp": "2025-12-19T18:58:41.259425+00:00", "meta": {"OBJECT_NAME": "INTELSAT 10 (IS-10)", "OBJECT_ID": "2001-019A", "EPOCH": "2025-12-18T15:52:21.542016", "MEAN_MOTION": 0.99076062, "ECCENTRICITY": 0.00076782, "INCLINATION": 8.6429, "RA_OF_ASC_NODE": 61.0978, "ARG_OF_PERICENTER": 228.2333, "MEAN_ANOMALY": 149.5829, "EPHEMERIS_TYPE": 0, "CLASSIFICATION_TYPE": "U", "NORAD_CAT_ID": 26766, "ELEMENT_SET_NO": 999, "REV_AT_EPOCH": 4379, "BSTAR": 0, "MEAN_MOTION_DOT": -1.61e-06, "MEAN_MOTION_DDOT": 0}, "tle": {"line1": "1 26766U 01019A   25352.66136044 -.00000161  00000+0  00000+0 0  9992", "line2": "2 26766   8.6429  61.0978 0007678 228.2333 149.5829  0.99076062 43790"}}, "geometry": {"type": "Point", "coordinates": [121.44241757276468, 7.550996912571923]}}, {"type": "Feature", "properties": {"norad_id": 26900, "name": "INTELSAT 902 (IS-902)", "group": "intelsat", "lat": -5.3126541359139825, "lon": -36.87529307107301, "alt_km": 35777.78855082332, "timestamp": "2025-12-19T18:58:41.259449+00:00", "meta": {"OBJECT_NAME": "INTELSAT 902 (IS-902)", "OBJECT_ID": "2001-039A", "EPOCH": "2025-12-15T13:09:02.081664", "MEAN_MOTION": 1.0027087, "ECCENTRICITY": 0.00045028, "INCLINATION": 5.6536, "RA_OF_ASC_NODE": 74.0372, "ARG_OF_PERICENTER": 189.6359, "MEAN_ANOMALY": 327.9329, "EPHEMERIS_TYPE": 0, "CLASSIFICATION_TYPE": "U", "NORAD_CAT_ID": 26900, "ELEMENT_SET_NO": 999, "REV_AT_EPOCH": 8885, "BSTAR": 0, "MEAN_MOTION_DOT": -2.65e-06, "MEAN_MOTION_DDOT": 0}, "tle": {"line1": "1 26900U 01039A   25349.54794076 -.00000265  00000+0  00000+0 0  9997", "line2": "2 26900   5.6536  74.0372 0004502 189.6359 327.9329  1.00270870 88858"}}, "geometry": {"type": "Point", "coordinates": [-36.87529307107301, -5.3126541359139825]}}, {"type": "Feature", "properties": {"norad_id": 27380, "name": "INTELSAT 904 (IS-904)", "group": "intelsat", "lat": -6.482180466828451, "lon": -18.185066787468944, "alt_km": 35780.37693754363, "timestamp": "2025-12-19T18:58:41.259464+00:00", "meta": {"OBJECT_NAME": "INTELSAT 904 (IS-904)", "OBJECT_ID": "2002-007A", "EPOCH": "2025-12-19T06:28:21.732672", "MEAN_MOTION": 1.00271349, "ECCENTRICITY": 0.00017442, "INCLINATION": 6.47, "RA_OF_ASC_NODE": 71.3577, "ARG_OF_PERICENTER": 246.9588, "MEAN_ANOMALY": 195.3942, "EPHEMERIS_TYPE": 0, "CLASSIFICATION_TYPE": "U", "NORAD_CAT_ID": 27380, "ELEMENT_SET_NO": 999, "REV_AT_EPOCH": 4996, "BSTAR": 0, "MEAN_MOTION_DOT": -2.07e-06, "MEAN_MOTION_DDOT": 0}, "tle": {"line1": "1 27380U 02007A   25353.26969598 -.00000207  00000+0  00000+0 0  9999", "line2": "2 27380   6.4700  71.3577 0001744 246.9588 195.3942  1.00271349 49965"}}, "geometry": {"type": "Point", "coordinates": [-18.185066787468944, -6.482180466828451]}}, {"type": "Feature", "properties": {"norad_id": 27426, "name": "DIRECTV 5 (TEMPO 1)", "group": "intelsat", "lat": -0.45823911693620506, "lon": -96.83743133976891, "alt_km": 35772.425919273956, "timestamp": "2025-12-19T18:58:41.259476+00:00", "meta": {"OBJECT_NAME": "DIRECTV 5 (TEMPO 1)", "OBJECT_ID": "2002-023A", "EPOCH": "2025-12-19T05:54:43.346592", "MEAN_MOTION": 1.0027278, "ECCENTRICITY": 0.00034269, "INCLINATION": 4.4178, "RA_OF_ASC_NODE": 77.5774, "ARG_OF_PERICENTER": 207.9446, "MEAN_ANOMALY": 141.1455, "EPHEMERIS_TYPE": 0, "CLASSIFICATION_TYPE": "U", "NORAD_CAT_ID": 27426, "ELEMENT_SET_NO": 999, "REV_AT_EPOCH": 8631, "BSTAR": 0, "MEAN_MOTION_DOT": -3.6e-07, "MEAN_MOTION_DDOT": 0}, "tle": {"line1": "1 27426U 02023A   25353.24633503 -.00000036  00000+0  00000+0 0  9990", "line2": "2 27426   4.4178  77.5774 0003426 207.9446 141.1455  1.00272780 86317"}}, "geometry": {"type": "Point", "coordinates": [-96.83743133976891, -0.45823911693620506]}}, {"type": "Feature", "properties": {"norad_id": 27438, "name": "INTELSAT 905 (IS-905)", "group": "intelsat", "lat": 1.7030521993061571, "lon": -123.83119303992758, "alt_km": 35776.627492907675, "timestamp": "2025-12-19T18:58:41.259489+00:00", "meta": {"OBJECT_NAME": "INTELSAT 905 (IS-905)", "OBJECT_ID": "2002-027A", "EPOCH": "2025-12-18T20:04:07.110624", "MEAN_MOTION": 1.00272079, "ECCENTRICITY": 0.00026396, "INCLINATION": 6.3, "RA_OF_ASC_NODE": 71.9858, "ARG_OF_PERICENTER": 200.0074, "MEAN_ANOMALY": 339.5183, "EPHEMERIS_TYPE": 0, "CLASSIFICATION_TYPE": "U", "NORAD_CAT_ID": 27438, "ELEMENT_SET_NO": 999, "REV_AT_EPOCH": 4955, "BSTAR": 0, "MEAN_MOTION_DOT": 1.13e-06, "MEAN_MOTION_DDOT": 0}, "tle": {"line1": "1 27438U 02027A   25352.83619341  .00000113  00000+0  00000+0 0  9990", "line2": "2 27438   6.3000  71.9858 0002639 200.0074 339.5183  1.00272079 49559"}}, "geometry": {"type": "Point", "coordinates": [-123.83119303992758, 1.7030521993061571]}}, {"type": "Feature", "properties": {"norad_id": 27445, "name": "GALAXY 3C (G-3C)", "group": "intelsat", "lat": -1.0413683786611592, "lon": -81.5753958816066, "alt_km": 35788.57658446049, "timestamp": "2025-12-19T18:58:41.259501+00:00", "meta": {"OBJECT_NAME": "GALAXY 3C (G-3C)", "OBJECT_ID": "2002-030A", "EPOCH": "2025-12-19T06:03:44.417088", "MEAN_MOTION": 1.00271938, "ECCENTRICITY": 0.0001141, "INCLINATION": 3.2793, "RA_OF_ASC_NODE": 80.4404, "ARG_OF_PERICENTER": 78.4282, "MEAN_ANOMALY": 285.3097, "EPHEMERIS_TYPE": 0, "CLASSIFICATION_TYPE": "U", "NORAD_CAT_ID": 27445, "ELEMENT_SET_NO": 999, "REV_AT_EPOCH": 4469, "BSTAR": 0, "MEAN_MOTION_DOT": -1.31e-06, "MEAN_MOTION_DDOT": 0}, "tle": {"line1": "1 27445U 02030A   25353.25259742 -.00000131  00000+0  00000+0 0  9995", "line2": "2 27445   3.2793  80.4404 0001141  78.4282 285.3097  1.00271938 44694"}}, "geometry": {"type": "Point", "coordinates": [-81.5753958816066, -1.0413683786611592]}}, {"type": "Feature", "properties": {"norad_id": 27513, "name": "INTELSAT 906 (IS-906)", "group": "intelsat", "lat": 0.23993786418716156, "lon": 77.4384503784254, "alt_km": 35811.61641570608, "timestamp": "2025-12-19T18:58:41.259514+00:00", "meta": {"OBJECT_NAME": "INTELSAT 906 (IS-906)", "OBJECT_ID": "2002-041A", "EPOCH": "2025-12-19T05:00:36.705888", "MEAN_MOTION": 1.00272586, "ECCENTRICITY": 0.00063202, "INCLINATION": 5.3458, "RA_OF_ASC_NODE": 75.1553, "ARG_OF_PERICENTER": 197.8697, "MEAN_ANOMALY": 314.3156, "EPHEMERIS_TYPE": 0, "CLASSIFICATION_TYPE": "U", "NORAD_CAT_ID": 27513, "ELEMENT_SET_NO": 999, "REV_AT_EPOCH": 8522, "BSTAR": 0, "MEAN_MOTION_DOT": 3.3e-07, "MEAN_MOTION_DDOT": 0}, "tle": {"line1": "1 27513U 02041A   25353.20875817  .00000033  00000+0  00000+0 0  9995", "line2": "2 27513   5.3458  75.1553 0006320 197.8697 314.3156  1.00272586 85220"}}, "geometry": {"type": "Point", "coordinates": [77.4384503784254, 0.23993786418716156]}}, {"type": "Feature", "properties": {"norad_id": 27954, "name": "GALAXY 13 (HORIZONS-1)", "group": "intelsat", "lat": 0.6311666408353258, "lon": -136.72752154309958, "alt_km": 35778.575304236874, "timestamp": "2025-12-19T18:58:41.259526+00:00", "meta": {"OBJECT_NAME": "GALAXY 13 (HORIZONS-1)", "OBJECT_ID": "2003-044A", "EPOCH": "2025-12-19T05:25:38.491680", "MEAN_MOTION": 1.0026926, "ECCENTRICITY": 0.00024327, "INCLINATION": 0.9531, "RA_OF_ASC_NODE": 86.3872, "ARG_OF_PERICENTER": 175.357, "MEAN_ANOMALY": 117.7371, "EPHEMERIS_TYPE": 0, "CLASSIFICATION_TYPE": "U", "NORAD_CAT_ID": 27954, "ELEMENT_SET_NO": 999, "REV_AT_EPOCH": 4476, "BSTAR": 0, "MEAN_MOTION_DOT": 1.57e-06, "MEAN_MOTION_DDOT": 0}, "tle": {"line1": "1 27954U 03044A   25353.22613995  .00000157  00000+0  00000+0 0  9994", "line2": "2 27954   0.9531  86.3872 0002432 175.3570 117.7371  1.00269260 44764"}}, "geometry": {"type": "Point", "coordinates": [-136.72752154309958, 0.6311666408353258]}}, {"type": "Feature", "properties": {"norad_id": 28358, "name": "INTELSAT 10-02", "group": "intelsat", "lat": -0.009070923697039445, "lon": 12.350228059313588, "alt_km": 35784.473824803696, "timestamp": "2025-12-19T18:58:41.259539+00:00", "meta": {"OBJECT_NAME": "INTELSAT 10-02", "OBJECT_ID": "2004-022A", "EPOCH": "2025-12-18T20:08:22.788096", "MEAN_MOTION": 1.00272833, "ECCENTRICITY": 8.965e-05, "INCLINATION": 0.0192, "RA_OF_ASC_NODE": 66.3622, "ARG_OF_PERICENTER": 235.9772, "MEAN_ANOMALY": 86.4926, "EPHEMERIS_TYPE": 0, "CLASSIFICATION_TYPE": "U", "NORAD_CAT_ID": 28358, "ELEMENT_SET_NO": 999, "REV_AT_EPOCH": 7874, "BSTAR": 0, "MEAN_MOTION_DOT": 1.5e-07, "MEAN_MOTION_DDOT": 0}, "tle": {"line1": "1 28358U 04022A   25352.83915264  .00000015  00000+0  00000+0 0  9993", "line2": "2 28358   0.0192  66.3622 0000896 235.9772  86.4926  1.00272833 78740"}}, "geometry": {"type": "Point", "coordinates": [12.350228059313588, -0.009070923697039445]}}, {"type": "Feature", "properties": {"norad_id": 28626, "name": "XM-3 (RHYTHM)", "group": "intelsat", "lat": 0.06742091987475368, "lon": 94.11310082616663, "alt_km": 36161.252978533186, "timestamp": "2025-12-19T18:58:41.259551+00:00", "meta": {"OBJECT_NAME": "XM-3 (RHYTHM)", "OBJECT_ID": "2005-008A", "EPOCH": "2025-12-19T03:23:23.518752", "MEAN_MOTION": 0.98950167, "ECCENTRICITY": 0.00018735, "INCLINATION": 0.1906, "RA_OF_ASC_NODE": 81.929, "ARG_OF_PERICENTER": 278.2541, "MEAN_ANOMALY": 222.5456, "EPHEMERIS_TYPE": 0, "CLASSIFICATION_TYPE": "U", "NORAD_CAT_ID": 28626, "ELEMENT_SET_NO": 999, "REV_AT_EPOCH": 4081, "BSTAR": 0, "MEAN_MOTION_DOT": 4.8e-07, "MEAN_MOTION_DDOT": 0}, "tle": {"line1": "1 28626U 05008A   25353.14124443  .00000048  00000+0  00000+0 0  9998", "line2": "2 28626   0.1906  81.9290 0001873 278.2541 222.5456  0.98950167 40813"}}, "geometry": {"type": "Point", "coordinates": [94.11310082616663, 0.06742091987475368]}}]}